0 FENGYUN 1C DEB
1 30041U 99025NS  22240.53605837  .00000256  00000-0  17100-3 0  9995
2 30041  99.5618 261.3230 0035350 312.4446 201.2082 14.10430014803368
0 FENGYUN 1C DEB
1 30043U 99025NU  22240.27860806  .00000376  00000-0  14187-3 0  9992
2 30043  98.5824 356.7094 0318076 358.3332   1.6755 14.12705632803190
0 FENGYUN 1C DEB
1 30044U 99025NV  22239.84658426  .00001561  00000-0  63308-3 0  9993
2 30044  98.1546 203.3213 0120260 175.6673 184.5579 14.25067579807770
0 FENGYUN 1C DEB
1 30045U 99025NW  22240.55702598  .00001633  00000-0  96584-3 0  9996
2 30045  99.1834 226.8714 0114863 248.0465 235.4327 14.05973766797243
0 FENGYUN 1C DEB
1 30047U 99025NY  22239.63141581  .00000414  00000-0  34700-3 0  9992
2 30047  99.8924 301.3767 0130446 273.3442 243.7871 13.90829449791724
0 FENGYUN 1C DEB
1 30048U 99025NZ  22240.37227840  .00000074  00000-0  98762-4 0  9990
2 30048  98.7052 184.9423 0188195 242.3072 243.0788 13.78659801785652
0 FENGYUN 1C DEB
1 30050U 99025PB  22240.01622694  .00000415  00000-0  37213-3 0  9992
2 30050  96.8280 154.1908 0176065 210.4810 268.7659 13.80931526785935
0 FENGYUN 1C DEB
1 30052U 99025PD  22239.84055015  .00000256  00000-0  24511-3 0  9990
2 30052  99.4398 276.3187 0296384 130.6382  44.6873 13.70737214780623
0 FENGYUN 1C DEB
1 30053U 99025PE  22239.64597469  .00001466  00000-0  83210-3 0  9998
2 30053  98.6491 130.3842 0380682  35.6963 354.9882 13.80379881783140
0 FENGYUN 1C DEB
1 30054U 99025PF  22239.37368238  .00000274  00000-0  28768-3 0  9992
2 30054  99.5263 278.7045 0281054 239.8437 187.3037 13.67748237778860
0 FENGYUN 1C DEB
1 30056U 99025PH  22240.46544960  .00000852  00000-0  77127-3 0  9999
2 30056  98.3524 206.6908 0322143 190.0470 169.4134 13.64903720775343
0 FENGYUN 1C DEB
1 30057U 99025PJ  22240.46550630  .00000365  00000-0  45574-3 0  9991
2 30057  98.8427  52.9576 0302522 359.4441  54.0020 13.52563526769701
0 FENGYUN 1C DEB
1 30058U 99025PK  22239.59023382  .00000297  00000-0  42037-3 0  9998
2 30058  99.7137 266.8326 0320461 252.0093 269.7492 13.45974000766498
0 FENGYUN 1C DEB
1 30059U 99025PL  22240.30474847  .00000017  00000-0  63674-4 0  9997
2 30059  98.8912 358.3863 0330649 106.9273 285.6750 13.44563684766450
0 FENGYUN 1C DEB
1 30060U 99025PM  22240.41141637  .00000632  00000-0  86950-3 0  9993
2 30060  99.3341 180.7074 0356748 172.3529 318.9211 13.38681793761377
0 FENGYUN 1C DEB
1 30061U 99025PN  22239.48407701  .00001286  00000-0  16553-2 0  9993
2 30061 101.8779 120.4586 0387234  82.5860  39.1593 13.37718157759595
0 FENGYUN 1C DEB
1 30062U 99025PP  22239.87921677  .00000477  00000-0  32094-3 0  9990
2 30062  98.8572 265.9514 0050551 181.5782 303.2917 14.04714244800073
0 FENGYUN 1C DEB
1 30063U 99025PQ  22239.54499904  .00000028  00000-0  35818-4 0  9998
2 30063  98.4880 260.7312 0032550 359.5873 152.0993 14.14951043806462
0 FENGYUN 1C DEB
1 30064U 99025PR  22239.76673238  .00000083  00000-0  66890-4 0  9992
2 30064  98.7507 267.6105 0065993 302.7014 116.6315 14.12952502805105
0 FENGYUN 1C DEB
1 30065U 99025PS  22240.08333633  .00000032  00000-0  57303-4 0  9995
2 30065  98.7035 285.6453 0132958  74.4731 287.1061 13.86236728790170
0 FENGYUN 1C DEB
1 30066U 99025PT  22240.04051038  .00000067  00000-0  49436-4 0  9994
2 30066  98.5987 250.0841 0120941 128.2844 297.3975 14.17681487808015
0 FENGYUN 1C DEB
1 30067U 99025PU  22240.14976903  .00000297  00000-0  98410-4 0  9994
2 30067  98.8955  69.1427 0162817 351.4604 119.8522 14.38650531818921
0 FENGYUN 1C DEB
1 30068U 99025PV  22240.48218308  .00000009  00000-0  23921-4 0  9996
2 30068  98.6853 248.3324 0193918 165.5183 195.1656 14.10550919803979
0 FENGYUN 1C DEB
1 30069U 99025PW  22239.91339969  .00000144  00000-0  11729-3 0  9992
2 30069  98.7355 248.6671 0049977 183.5897 249.4873 14.03575498799646
0 FENGYUN 1C DEB
1 30070U 99025PX  22239.88251510  .00002630  00000-0  10929-2 0  9997
2 30070  98.2686  29.7398 0389008 124.3381  27.4190 13.93216260790371
0 FENGYUN 1C DEB
1 30071U 99025PY  22240.20580442  .00001457  00000-0  59435-3 0  9997
2 30071  98.7148 312.1120 0059966  77.5504 346.3411 14.27938456809629
0 FENGYUN 1C DEB
1 30072U 99025PZ  22239.20183428  .00001422  00000-0  76289-3 0  9997
2 30072  99.0690 335.6116 0086672 119.8490 241.1331 14.12744069800565
0 FENGYUN 1C DEB
1 30073U 99025QA  22239.38804916  .00000898  00000-0  55135-3 0  9992
2 30073  99.3728 140.7606 0065702  31.1839  32.7922 14.07420845799399
0 FENGYUN 1C DEB
1 30074U 99025QB  22239.53861722  .00000697  00000-0  44683-3 0  9991
2 30074  99.2233 270.2739 0106028 262.8518  96.0583 14.04111463797293
0 FENGYUN 1C DEB
1 30075U 99025QC  22239.84979519  .00000161  00000-0  15751-3 0  9990
2 30075  99.4936 252.4989 0091630 172.9254 311.3160 13.91874502793278
0 FENGYUN 1C DEB
1 30076U 99025QD  22240.51164719  .00000107  00000-0  13929-3 0  9990
2 30076  99.1955 251.7682 0177691  24.4211 126.6572 13.75077820783784
0 FENGYUN 1C DEB
1 30077U 99025QE  22239.34646015 -.00000168  00000-0 -74885-4 0  9992
2 30077  98.8703 270.2259 0022291  49.4563  16.6232 14.06814975801912
0 FENGYUN 1C DEB
1 30078U 99025QF  22239.16188987  .00000757  00000-0  43620-3 0  9996
2 30078  98.9326 301.7016 0063947 107.6124 307.5286 14.11137679800756
0 FENGYUN 1C DEB
1 30079U 99025QG  22239.06642809  .00000346  00000-0  26152-3 0  9999
2 30079  99.2153 280.8686 0082329  16.1384  49.3930 13.99296544796951
0 FENGYUN 1C DEB
1 30080U 99025QH  22240.01749248  .00000061  00000-0  54920-4 0  9992
2 30080  98.6340 250.1025 0134700 234.4415 181.0463 14.09121569803019
0 FENGYUN 1C DEB
1 30081U 99025QJ  22239.92923399  .00000284  00000-0  22945-3 0  9990
2 30081  98.9262 255.8629 0078784  56.5261  12.2390 13.96566414795560
0 FENGYUN 1C DEB
1 30082U 99025QK  22239.81578973  .00001862  00000-0  24799-3 0  9995
2 30082  98.8451   8.9930 0156790  66.4719  99.9213 14.72882525834046
0 FENGYUN 1C DEB
1 30085U 99025QN  22240.36610983  .00030419  00000-0  16416-2 0  9994
2 30085  98.3857 174.2413 0067302  41.6441 318.9884 15.12723629838433
0 FENGYUN 1C DEB
1 30086U 99025QP  22240.33045233  .00000508  00000-0  35774-3 0  9997
2 30086  99.0501 274.7143 0062657 234.1694 189.0853 14.01832496798530
0 FENGYUN 1C DEB
1 30087U 99025QQ  22239.58656715  .00000357  00000-0  11074-3 0  9995
2 30087  98.5381 282.3780 0243423  93.9020  57.4930 14.31300584814601
0 FENGYUN 1C DEB
1 30088U 99025QR  22240.48699405  .00000278  00000-0  97337-4 0  9999
2 30088  98.3135 254.9615 0214643 228.3740 301.3352 14.30709605814654
0 FENGYUN 1C DEB
1 30089U 99025QS  22240.56337620  .00000196  00000-0  94772-4 0  9996
2 30089  99.0330  96.9494 0077580  98.7102 316.5052 14.27909002813245
0 FENGYUN 1C DEB
1 30090U 99025QT  22240.07544722  .00000127  00000-0  74794-4 0  9993
2 30090  99.3486 314.5037 0061125 307.5645 127.4556 14.24671683811339
0 FENGYUN 1C DEB
1 30092U 99025QV  22240.19010509  .00000591  00000-0  22488-3 0  9996
2 30092  98.7973   9.6862 0092495 186.6009 295.7062 14.32373136815096
0 FENGYUN 1C DEB
1 30093U 99025QW  22240.03450045  .00000681  00000-0  25132-3 0  9992
2 30093  98.9367  51.4385 0080087 287.3162 189.7796 14.34164905815230
0 FENGYUN 1C DEB
1 30094U 99025QX  22239.22942755  .00008194  00000-0  11296-2 0  9998
2 30094  98.9934 326.6882 0041050 230.5954 129.1616 14.77928364825308
0 FENGYUN 1C DEB
1 30095U 99025QY  22239.88478596  .00001165  00000-0  21932-3 0  9998
2 30095  99.2351   2.3040 0274391  20.2522 340.9302 14.45545412817682
0 FENGYUN 1C DEB
1 30096U 99025QZ  22239.87748464  .00000259  00000-0  11806-3 0  9994
2 30096  99.2426 233.7251 0084287 102.8438 258.2175 14.28595697813659
0 FENGYUN 1C DEB
1 30099U 99025RC  22239.70500764  .00000220  00000-0  11391-3 0  9995
2 30099  98.6354 322.5106 0065164 148.0368   5.1280 14.23218698810626
0 FENGYUN 1C DEB
1 30101U 99025RE  22239.63104055  .00004142  00000-0  10375-2 0  9991
2 30101  99.1674 292.4329 0032051 345.9290  14.1007 14.51716725817285
0 FENGYUN 1C DEB
1 30102U 99025RF  22240.14094698  .00000247  00000-0  12363-3 0  9993
2 30102  98.4983 287.2469 0145500 258.6960 169.9839 14.19683811808933
0 FENGYUN 1C DEB
1 30103U 99025RG  22240.45981192  .00000359  00000-0  18614-3 0  9991
2 30103  99.1276 157.0133 0067448 309.3949 109.7678 14.20253509808767
0 FENGYUN 1C DEB
1 30104U 99025RH  22240.16065796  .00000522  00000-0  25423-3 0  9991
2 30104  98.4826 114.0765 0081508  19.9007  98.0748 14.20404984808041
0 FENGYUN 1C DEB
1 30105U 99025RJ  22239.71596512  .00000234  00000-0  11155-3 0  9993
2 30105  98.5431 249.5852 0207362 314.3457  44.0885 14.17603682806970
0 FENGYUN 1C DEB
1 30106U 99025RK  22240.47022661  .00003101  00000-0  10371-2 0  9992
2 30106  98.9768  50.9591 0118304 224.2177 153.2169 14.34291240811074
0 FENGYUN 1C DEB
1 30107U 99025RL  22240.40945761  .00000084  00000-0  62894-4 0  9997
2 30107  99.0200 281.7833 0129971  83.7891 277.8069 14.13670778805815
0 FENGYUN 1C DEB
1 30108U 99025RM  22239.97900022  .00000167  00000-0  90718-4 0  9997
2 30108  98.6036 248.0188 0202951 233.7815 195.7661 14.14360166805959
0 FENGYUN 1C DEB
1 30109U 99025RN  22240.52226668  .00000277  00000-0  14326-3 0  9990
2 30109  98.5485 271.3232 0176574  93.6242  66.4527 14.14213322805534
0 FENGYUN 1C DEB
1 30110U 99025RP  22239.53295651  .00000090  00000-0  14710-3 0  9999
2 30110  98.8389  94.0320 0269442 215.5299 142.7636 13.55325799772116
0 FENGYUN 1C DEB
1 30111U 99025RQ  22240.40553354  .00007148  00000-0  15613-2 0  9998
2 30111 101.6075  33.0278 0084963 291.1707 124.2992 14.56070572815356
0 FENGYUN 1C DEB
1 30112U 99025RR  22239.55582797  .00000306  00000-0  14552-3 0  9997
2 30112  99.1924 149.1083 0217349 275.2138  82.4267 14.15548327805241
0 FENGYUN 1C DEB
1 30113U 99025RS  22240.40899060  .00001694  00000-0  75887-3 0  9997
2 30113  99.0220  23.5340 0055288 265.6695 158.2644 14.23150341807061
0 FENGYUN 1C DEB
1 30114U 99025RT  22240.03109396 -.00000011  00000-0  18883-4 0  9990
2 30114  98.7857 260.3355 0081539 277.8834 135.8090 14.08212353802324
